FLOCK 4S-23             
1 47545U 21006EF  21355.73610564  .00002878  00000+0  16418-3 0  9999
2 47545  97.4684  53.4683 0011858 163.6965 196.4650 15.13493339 51348
FLOCK 4S-42             
1 47612U 21006EQ  21355.72531073  .00004732  00000+0  26877-3 0  9991
2 47612  97.4706  53.4472 0011465 176.5710 183.5602 15.13340652 50363
FLOCK 4S-48             
1 47617U 21006EJ  21355.71103975  .00007608  00000+0  42610-3 0  9999
2 47617  97.4697  53.5639 0012480 158.0542 202.1227 15.13632690 51345
FLOCK 4S-46             
1 47684U 21006EK  21355.85217141  .00003552  00000+0  20139-3 0  9995
2 47684  97.4692  53.6593 0007776 186.6915 173.4214 15.13596112 50395
FLOCK 4S-47             
1 47685U 21006EL  21355.65510739  .00011491  00000+0  64781-3 0  9995
2 47685  97.4672  52.9761 0006983 179.7520 180.3715 15.13324825 51302
FLOCK 4S-44             
1 47686U 21006EM  21356.09344096  .00002775  00000+0  15891-3 0  9999
2 47686  97.4717  53.9047 0012190 170.9967 189.1485 15.13385502 50428
FLOCK 4S-43             
1 47687U 21006EN  21355.75171535  .00007664  00000+0  43358-3 0  9999
2 47687  97.4691  53.2036 0007269 165.8472 194.2964 15.13315045 51320
FLOCK 4S-45             
1 47688U 21006EP  21356.15686320  .00008699  00000+0  49434-3 0  9998
2 47688  97.4707  53.4917 0012001 157.0520 203.1250 15.13072546 51375
FLOCK 4S-41             
1 47698U 21006ER  21355.72846680  .00008999  00000+0  50718-3 0  9998
2 47698  97.4749  53.4704 0011027 169.1753 190.9718 15.13371871 50357
